STARLINK-34450          
1 64447U 25130K   26068.64917931  .00039687  00000+0  13433-2 0  9996
2 64447  53.1599  88.9546 0001114  92.4011 267.7118 15.30239893 40697
2025-313BC              
1 67298U 25313BC  26068.18968176  .00075331  00000+0  26410-2 0  9997
2 67298  97.3985 144.8110 0008478 328.9209  31.1528 15.29126358  7890
